NORAD_CAT_ID,OBJECT_NAME,OBJECT_TYPE,EPOCH,MEAN_MOTION,ECCENTRICITY,INCLINATION,RA_OF_ASC_NODE,ARG_OF_PERICENTER,MEAN_ANOMALY,BSTAR,MEAN_MOTION_DOT,MEAN_MOTION_DDOT,TLE_LINE0,TLE_LINE1,TLE_LINE2,SEMIMAJOR_AXIS,PERIOD,APOGEE,PERIGEE,DECAYED
54807.0,STARLINK-5410,PAYLOAD,2024-07-08 20:52:42,15.08843243,0.0001281,53.2155,241.8522,86.8259,273.288,8.5408e-05,1.072e-05,0.0,0 STARLINK-5410,1 54807U 22175BB  24190.86994125  .00001072  00000-0  85408-4 0  9990,2 54807  53.2155 241.8522 0001281  86.8259 273.2880 15.08843243 86069,6917.87,95.437,540.622,538.849,0.0
54807.0,STARLINK-5410,PAYLOAD,2024-07-09 09:35:48,15.08837509,0.0001303,53.2155,239.4734,87.2264,272.8878,6.571e-05,7.58e-06,0.0,0 STARLINK-5410,1 54807U 22175BB  24191.39986523  .00000758  00000-0  65710-4 0  9996,2 54807  53.2155 239.4734 0001303  87.2264 272.8878 15.08837509 86142,6917.888,95.438,540.654,538.852,0.0
54807.0,STARLINK-5410,PAYLOAD,2024-07-10 12:37:21,15.08840793,0.0001313,53.2153,234.417,89.883,270.2313,-1.1037e-05,-4.64e-06,0.0,0 STARLINK-5410,1 54807U 22175BB  24192.52594497 -.00000464  00000-0 -11037-4 0  9996,2 54807  53.2153 234.4170 0001313  89.8830 270.2313 15.08840793 86311,6917.878,95.438,540.651,538.835,0.0
54807.0,STARLINK-5410,PAYLOAD,2024-07-10 22:09:40,15.0883887,0.0001385,53.2152,232.6322,91.3599,268.7552,1.7084e-05,-1.6e-07,0.0,0 STARLINK-5410,1 54807U 22175BB  24192.92338516 -.00000016  00000-0  17084-4 0  9998,2 54807  53.2152 232.6322 0001385  91.3599 268.7552 15.08838870 88534,6917.884,95.438,540.707,538.791,0.0
54807.0,STARLINK-5410,PAYLOAD,2024-07-11 09:17:22,15.08840139,0.0001427,53.2154,230.5511,92.6217,267.4938,8.4274e-05,1.054e-05,0.0,0 STARLINK-5410,1 54807U 22175BB  24193.38706243  .00001054  00000-0  84274-4 0  9992,2 54807  53.2154 230.5511 0001427  92.6217 267.4938 15.08840139 88604,6917.88,95.438,540.732,538.758,0.0
54807.0,STARLINK-5410,PAYLOAD,2024-07-12 12:18:55,15.0883735,0.0001342,53.2152,225.4968,88.1301,271.9844,5.2448e-05,5.47e-06,0.0,0 STARLINK-5410,1 54807U 22175BB  24194.51314803  .00000547  00000-0  52448-4 0  9999,2 54807  53.2152 225.4968 0001342  88.1301 271.9844 15.08837350 86617,6917.888,95.438,540.682,538.825,0.0
54807.0,STARLINK-5410,PAYLOAD,2024-07-12 18:40:28,15.08836821,0.0001339,53.2151,224.3073,87.7252,272.3893,3.9214e-05,3.36e-06,0.0,0 STARLINK-5410,1 54807U 22175BB  24194.77810918  .00000336  00000-0  39214-4 0  9997,2 54807  53.2151 224.3073 0001339  87.7252 272.3893 15.08836821 88812,6917.89,95.438,540.681,538.829,0.0
54807.0,STARLINK-5410,PAYLOAD,2024-07-13 08:58:56,15.08840545,0.0001303,53.2154,221.6309,87.1471,272.967,4.0593e-05,3.58e-06,0.0,0 STARLINK-5410,1 54807U 22175BB  24195.37426735  .00000358  00000-0  40593-4 0  9990,2 54807  53.2154 221.6309 0001303  87.1471 272.9670 15.08840545 88902,6917.879,95.438,540.645,538.842,0.0
54807.0,STARLINK-5410,PAYLOAD,2024-07-13 18:31:15,15.08838659,0.0001282,53.2152,219.8467,87.0121,273.1018,4.6868e-05,4.58e-06,0.0,0 STARLINK-5410,1 54807U 22175BB  24195.77170849  .00000458  00000-0  46868-4 0  9998,2 54807  53.2152 219.8467 0001282  87.0121 273.1018 15.08838659 86800,6917.884,95.438,540.636,538.863,0.0
54807.0,STARLINK-5410,PAYLOAD,2024-07-14 10:25:07,15.08837906,0.0001308,53.2157,216.8731,86.9501,273.164,4.3033e-05,3.97e-06,0.0,0 STARLINK-5410,1 54807U 22175BB  24196.43411100  .00000397  00000-0  43033-4 0  9993,2 54807  53.2157 216.8731 0001308  86.9501 273.1640 15.08837906 89061,6917.887,95.438,540.657,538.847,0.0
54807.0,STARLINK-5410,PAYLOAD,2024-07-14 18:22:02,15.0883806,0.000131,53.2157,215.3862,86.358,273.7562,4.7471e-05,4.68e-06,0.0,0 STARLINK-5410,1 54807U 22175BB  24196.76531126  .00000468  00000-0  47471-4 0  9999,2 54807  53.2157 215.3862 0001310  86.3580 273.7562 15.08838060 89111,6917.886,95.438,540.658,538.845,0.0
54807.0,STARLINK-5410,PAYLOAD,2024-07-15 10:15:54,15.08841635,0.0001302,53.2156,212.4123,86.0235,274.0906,5.4262e-05,5.76e-06,0.0,0 STARLINK-5410,1 54807U 22175BB  24197.42770953  .00000576  00000-0  54262-4 0  9992,2 54807  53.2156 212.4123 0001302  86.0235 274.0906 15.08841635 87052,6917.875,95.437,540.641,538.84,0.0
54807.0,STARLINK-5410,PAYLOAD,2024-07-15 18:12:49,15.08841541,0.0001308,53.2156,210.9255,86.1225,273.9916,5.2722e-05,5.51e-06,0.0,0 STARLINK-5410,1 54807U 22175BB  24197.75890973  .00000551  00000-0  52722-4 0  9995,2 54807  53.2156 210.9255 0001308  86.1225 273.9916 15.08841541 89267,6917.876,95.437,540.646,538.836,0.0
54807.0,STARLINK-5410,PAYLOAD,2024-07-16 08:31:17,15.08841788,0.0001274,53.2153,208.249,87.1434,272.9704,7.1491e-05,8.5e-06,0.0,0 STARLINK-5410,1 54807U 22175BB  24198.35506877  .00000850  00000-0  71491-4 0  9995,2 54807  53.2153 208.2490 0001274  87.1434 272.9704 15.08841788 89357,6917.875,95.437,540.621,538.859,0.0
54807.0,STARLINK-5410,PAYLOAD,2024-07-17 05:11:18,15.08841028,0.0001284,53.2152,204.3832,86.7502,273.3637,5.2899e-05,5.54e-06,0.0,0 STARLINK-5410,1 54807U 22175BB  24199.21618946  .00000554  00000-0  52899-4 0  9994,2 54807  53.2152 204.3832 0001284  86.7502 273.3637 15.08841028 87327,6917.877,95.437,540.631,538.854,0.0
54807.0,STARLINK-5410,PAYLOAD,2024-07-17 06:46:41,15.08842622,0.0001268,53.2151,204.0857,87.7607,272.3531,6.7035e-05,7.79e-06,0.0,0 STARLINK-5410,1 54807U 22175BB  24199.28242789  .00000779  00000-0  67035-4 0  9996,2 54807  53.2151 204.0857 0001268  87.7607 272.3531 15.08842622 89492,6917.872,95.437,540.615,538.86,0.0
54807.0,STARLINK-5410,PAYLOAD,2024-07-18 06:37:29,15.08839887,0.0001275,53.215,199.6245,91.1606,268.9532,4.5766e-05,4.41e-06,0.0,0 STARLINK-5410,1 54807U 22175BB  24200.27603127  .00000441  00000-0  45766-4 0  9998,2 54807  53.2150 199.6245 0001275  91.1606 268.9532 15.08839887 87485,6917.881,95.438,540.628,538.864,0.0
54807.0,STARLINK-5410,PAYLOAD,2024-07-19 06:28:16,15.0883907,0.0001381,53.2157,195.1658,93.5446,266.5704,5.362e-05,5.66e-06,0.0,0 STARLINK-5410,1 54807U 22175BB  24201.26963300  .00000566  00000-0  53620-4 0  9996,2 54807  53.2157 195.1658 0001381  93.5446 266.5704 15.08839070 89792,6917.883,95.438,540.704,538.793,0.0
54807.0,STARLINK-5410,PAYLOAD,2024-07-20 04:43:40,15.08839367,0.0001442,53.2163,191.0034,94.1427,265.973,8.5756e-05,1.077e-05,0.0,0 STARLINK-5410,1 54807U 22175BB  24202.19699248  .00001077  00000-0  85756-4 0  9999,2 54807  53.2163 191.0034 0001442  94.1427 265.9730 15.08839367 87773,6917.882,95.438,540.745,538.75,0.0
54807.0,STARLINK-5410,PAYLOAD,2024-07-20 06:19:03,15.08840468,0.0001415,53.216,190.7054,93.9683,266.1471,9.0671e-05,1.155e-05,0.0,0 STARLINK-5410,1 54807U 22175BB  24202.26323164  .00001155  00000-0  90671-4 0  9997,2 54807  53.2160 190.7054 0001415  93.9683 266.1471 15.08840468 89949,6917.879,95.438,540.723,538.765,0.0
54807.0,STARLINK-5410,PAYLOAD,2024-07-21 04:34:27,15.08836058,0.000147,53.2162,186.5423,93.4778,266.6383,2.6529e-05,1.34e-06,0.0,0 STARLINK-5410,1 54807U 22175BB  24203.19059791  .00000134  00000-0  26529-4 0  9999,2 54807  53.2162 186.5423 0001470  93.4778 266.6383 15.08836058 87928,6917.892,95.438,540.774,538.741,0.0
54807.0,STARLINK-5410,PAYLOAD,2024-07-21 09:20:36,15.08840401,0.0001454,53.2162,185.6499,92.6648,267.4511,5.8325e-05,6.4e-06,0.0,0 STARLINK-5410,1 54807U 22175BB  24203.38931435  .00000640  00000-0  58325-4 0  9995,2 54807  53.2162 185.6499 0001454  92.6648 267.4511 15.08840401 90114,6917.879,95.438,540.75,538.738,0.0
54807.0,STARLINK-5410,PAYLOAD,2024-07-22 07:36:00,15.08843824,0.0001286,53.2161,181.4867,93.3006,266.8133,4.8476e-05,4.84e-06,0.0,0 STARLINK-5410,1 54807U 22175BB  24204.31667383  .00000484  00000-0  48476-4 0  9999,2 54807  53.2161 181.4867 0001286  93.3006 266.8133 15.08843824 88094,6917.869,95.437,540.623,538.844,0.0
54807.0,STARLINK-5410,PAYLOAD,2024-07-23 04:16:01,15.0884138,0.000149,53.2163,177.621,101.5453,258.5706,6.1895e-05,6.97e-06,0.0,0 STARLINK-5410,1 54807U 22175BB  24205.17779558  .00000697  00000-0  61895-4 0  9998,2 54807  53.2163 177.6210 0001490 101.5453 258.5706 15.08841380 90384,6917.876,95.437,540.772,538.71,0.0
54807.0,STARLINK-5410,PAYLOAD,2024-07-23 15:23:44,15.0882929,0.0001461,53.2171,175.5389,83.2481,276.8678,-5.2528e-05,-1.124e-05,0.0,0 STARLINK-5410,1 54807U 22175BB  24205.64148878 -.00001124  00000-0 -52528-4 0  9996,2 54807  53.2171 175.5389 0001461  83.2481 276.8678 15.08829290 88296,6917.913,95.438,540.789,538.767,0.0
54807.0,STARLINK-5410,PAYLOAD,2024-07-24 04:06:51,15.08812587,0.0001692,53.2164,173.1583,94.5901,265.5284,-0.00020123,-3.487e-05,0.0,0 STARLINK-5410,1 54807U 22175BB  24206.17143269 -.00003487  00000-0 -20123-3 0  9993,2 54807  53.2164 173.1583 0001692  94.5901 265.5284 15.08812587 88374,6917.964,95.439,541.0,538.659,0.0
54807.0,STARLINK-5410,PAYLOAD,2024-07-24 07:17:36,15.08830932,0.0001443,53.2162,172.5638,99.6222,260.4934,-2.2991e-05,-6.54e-06,0.0,0 STARLINK-5410,1 54807U 22175BB  24206.30389718 -.00000654  00000-0 -22991-4 0  9998,2 54807  53.2162 172.5638 0001443  99.6222 260.4934 15.08830932 88394,6917.908,95.438,540.771,538.775,0.0
54807.0,STARLINK-5410,PAYLOAD,2024-07-25 03:57:36,15.08847294,0.0001727,53.2154,168.7052,61.282,298.8346,9.4446e-05,1.216e-05,0.0,0 STARLINK-5410,1 54807U 22175BB  24207.16500765  .00001216  00000-0  94446-4 0  9997,2 54807  53.2154 168.7052 0001727  61.2820 298.8346 15.08847294 88522,6917.858,95.437,540.918,538.528,0.0
54807.0,STARLINK-5410,PAYLOAD,2024-07-26 06:59:09,15.08847924,0.0001528,53.216,163.6407,86.6421,273.4745,0.0001494,2.091e-05,0.0,0 STARLINK-5410,1 54807U 22175BB  24208.29108405  .00002091  00000-0  14940-3 0  9999,2 54807  53.2160 163.6407 0001528  86.6421 273.4745 15.08847924 88694,6917.856,95.437,540.778,538.664,0.0
54807.0,STARLINK-5410,PAYLOAD,2024-07-27 03:39:09,15.08857186,0.0001697,53.2164,159.7767,89.5289,270.5897,3.764e-05,3.11e-06,0.0,0 STARLINK-5410,1 54807U 22175BB  24209.15219421  .00000311  00000-0  37640-4 0  9992,2 54807  53.2164 159.7767 0001697  89.5289 270.5897 15.08857186 90986,6917.828,95.436,540.867,538.519,0.0
